{
    "links": {
        "self": "http://www.neowsapp.com/rest/v1/neo/3843174?api_key=iIulBulltgU6a56xZRHN4H3l9WmuAYTsLGpBGhQ2"
    },
    "id": "3843174",
    "neo_reference_id": "3843174",
    "name": "(2019 NO3)",
    "designation": "2019 NO3",
    "nasa_jpl_url": "http://ssd.jpl.nasa.gov/sbdb.cgi?sstr=3843174",
    "absolute_magnitude_h": 19.1,
    "estimated_diameter": {
        "kilometers": {
            "estimated_diameter_min": 0.4023045798,
            "estimated_diameter_max": 0.8995803882
        },
        "meters": {
            "estimated_diameter_min": 402.3045798343,
            "estimated_diameter_max": 899.5803881691
        },
        "miles": {
            "estimated_diameter_min": 0.2499803991,
            "estimated_diameter_max": 0.5589731654
        },
        "feet": {
            "estimated_diameter_min": 1319.8969577037,
            "estimated_diameter_max": 2951.3793207207
        }
    },
    "is_potentially_hazardous_asteroid": false,
    "close_approach_data": [
        {
            "close_approach_date": "2024-01-10",
            "close_approach_date_full": "2024-Jan-10 12:08",
            "epoch_date_close_approach": 1704888480000,
            "relative_velocity": {
                "kilometers_per_second": "27.9131998238",
                "kilometers_per_hour": "100487.5193656634",
                "miles_per_hour": "62439.0366858479"
            },
            "miss_distance": {
                "astronomical": "0.1726486777",
                "lunar": "67.1603356253",
                "kilometers": "25827874.442236499",
                "miles": "16048696.9904377262"
            },
            "orbiting_body": "Earth"
        }
    ],
    "orbital_data": {
        "orbit_id": "12",
        "orbit_determination_date": "2019-08-21 05:18:34",
        "first_observation_date": "2019-07-05",
        "last_observation_date": "2019-08-21",
        "data_arc_in_days": 47,
        "observations_used": 42,
        "orbit_uncertainty": "7",
        "minimum_orbit_intersection": ".170818",
        "jupiter_tisserand_invariant": "2.568",
        "epoch_osculation": "2459000.5",
        "eccentricity": ".7005629255729001",
        "semi_major_axis": "2.85413073941236",
        "inclination": "45.18407255709521",
        "ascending_node_longitude": "102.4997228137189",
        "orbital_period": "1761.20220844725",
        "perihelion_distance": ".8546325586420925",
        "perihelion_argument": "72.74799589766364",
        "aphelion_distance": "4.853628920182628",
        "perihelion_time": "2458610.932326593986",
        "mean_anomaly": "79.62990379725363",
        "mean_motion": ".2044058304454382",
        "equinox": "J2000",
        "orbit_class": {
            "orbit_class_type": "APO",
            "orbit_class_description": "Near-Earth asteroid orbits which cross the Earth’s orbit similar to that of 1862 Apollo",
            "orbit_class_range": "a (semi-major axis) > 1.0 AU; q (perihelion) < 1.017 AU"
        }
    },
    "is_sentry_object": false
}